NORAD_CAT_ID,OBJECT_NAME,OBJECT_TYPE,EPOCH,MEAN_MOTION,ECCENTRICITY,INCLINATION,RA_OF_ASC_NODE,ARG_OF_PERICENTER,MEAN_ANOMALY,BSTAR,MEAN_MOTION_DOT,MEAN_MOTION_DDOT,TLE_LINE0,TLE_LINE1,TLE_LINE2,SEMIMAJOR_AXIS,PERIOD,APOGEE,PERIGEE,DECAYED
53178.0,STARLINK-4280,PAYLOAD,2023-10-27 09:10:46,15.08862789,0.000168,53.2167,84.1482,92.7553,267.3631,0.00022101,3.233e-05,0.0,0 STARLINK-4280,1 53178U 22083AY  23300.38248406  .00003233  00000-0  22101-3 0  9992,2 53178  53.2167  84.1482 0001680  92.7553 267.3631 15.08862789 71496,6917.811,95.436,540.838,538.514,0.0
53178.0,STARLINK-4280,PAYLOAD,2023-10-27 18:43:05,15.08854711,0.0001543,53.2175,82.3624,87.6119,272.5049,1.2162e-05,-9.4e-07,0.0,0 STARLINK-4280,1 53178U 22083AY  23300.77992213 -.00000094  00000-0  12162-4 0  9997,2 53178  53.2175  82.3624 0001543  87.6119 272.5049 15.08854711 71556,6917.835,95.437,540.768,538.633,0.0
53178.0,STARLINK-4280,PAYLOAD,2023-10-28 09:01:34,15.08839553,0.000197,53.216,79.6857,86.0724,274.0493,-0.00013649,-2.46e-05,0.0,0 STARLINK-4280,1 53178U 22083AY  23301.37608835 -.00002460  00000-0 -13649-3 0  9998,2 53178  53.2160  79.6857 0001970  86.0724 274.0493 15.08839553 71643,6917.882,95.438,541.11,538.384,0.0
53178.0,STARLINK-4280,PAYLOAD,2023-10-28 13:47:43,15.08833678,0.0001902,53.2164,78.7934,86.6023,273.5187,-0.00016643,-2.936e-05,0.0,0 STARLINK-4280,1 53178U 22083AY  23301.57481075 -.00002936  00000-0 -16643-3 0  9990,2 53178  53.2164  78.7934 0001902  86.6023 273.5187 15.08833678 71046,6917.9,95.438,541.08,538.449,0.0
53178.0,STARLINK-4280,PAYLOAD,2023-10-28 16:58:29,15.08835893,0.0001371,53.2162,78.1986,90.6934,269.4215,-5.1761e-05,-1.112e-05,0.0,0 STARLINK-4280,1 53178U 22083AY  23301.70729028 -.00001112  00000-0 -51761-4 0  9994,2 53178  53.2162  78.1986 0001371  90.6934 269.4215 15.08835893 71060,6917.893,95.438,540.706,538.809,0.0
53178.0,STARLINK-4280,PAYLOAD,2023-10-29 13:38:30,15.08859994,0.0001303,53.2162,74.3323,90.9438,269.1703,0.0011402,0.00017915,0.0,0 STARLINK-4280,1 53178U 22083AY  23302.56840882  .00017915  00000-0  11402-2 0  9993,2 53178  53.2162  74.3323 0001303  90.9438 269.1703 15.08859994 71191,6917.819,95.436,540.586,538.783,0.0
53178.0,STARLINK-4280,PAYLOAD,2023-10-29 15:13:53,15.08865928,0.000132,53.216,74.0349,90.8938,269.2206,0.0012971,0.0002043,0.0,0 STARLINK-4280,1 53178U 22083AY  23302.63464735  .00020430  00000-0  12971-2 0  9998,2 53178  53.2160  74.0349 0001320  90.8938 269.2206 15.08865928 71831,6917.801,95.436,540.579,538.753,0.0
53178.0,STARLINK-4280,PAYLOAD,2023-10-30 11:53:54,15.0884285,0.0002245,53.219,70.1665,121.3582,238.763,3.7208e-05,3.04e-06,0.0,0 STARLINK-4280,1 53178U 22083AY  23303.49576772  .00000304  00000-0  37208-4 0  9998,2 53178  53.2190  70.1665 0002245 121.3582 238.7630 15.08842850 71969,6917.872,95.437,541.29,538.184,0.0
53178.0,STARLINK-4280,PAYLOAD,2023-10-30 16:40:03,15.08839495,0.0001493,53.2168,69.2766,102.4512,257.6647,0.00028777,4.295e-05,0.0,0 STARLINK-4280,1 53178U 22083AY  23303.69448958  .00004295  00000-0  28777-3 0  9997,2 53178  53.2168  69.2766 0001493 102.4512 257.6647 15.08839495 71365,6917.882,95.438,540.78,538.714,0.0
53178.0,STARLINK-4280,PAYLOAD,2023-10-31 14:55:27,15.08854019,0.0001392,53.2176,65.116,89.1977,270.9174,0.00081641,0.00012734,0.0,0 STARLINK-4280,1 53178U 22083AY  23304.62184962  .00012734  00000-0  81641-3 0  9999,2 53178  53.2176  65.1160 0001392  89.1977 270.9174 15.08854019 71509,6917.838,95.437,540.666,538.74,0.0
53178.0,STARLINK-4280,PAYLOAD,2023-11-01 13:10:51,15.08843545,0.000134,53.2175,60.9506,100.2047,259.9096,0.00040247,6.124e-05,0.0,0 STARLINK-4280,1 53178U 22083AY  23305.54921231  .00006124  00000-0  40247-3 0  9992,2 53178  53.2175  60.9506 0001340 100.2047 259.9096 15.08843545 72278,6917.87,95.437,540.662,538.808,0.0
53178.0,STARLINK-4280,PAYLOAD,2023-11-01 14:46:15,15.08845328,0.0001264,53.2175,60.6538,93.8851,266.2285,0.00049586,7.614e-05,0.0,0 STARLINK-4280,1 53178U 22083AY  23305.61545216  .00007614  00000-0  49586-3 0  9995,2 53178  53.2175  60.6538 0001264  93.8851 266.2285 15.08845328 71658,6917.864,95.437,540.604,538.855,0.0
53178.0,STARLINK-4280,PAYLOAD,2023-11-02 13:01:39,15.08839543,0.0001325,53.2177,56.4892,88.3788,271.7356,0.00044186,6.751e-05,0.0,0 STARLINK-4280,1 53178U 22083AY  23306.54281665  .00006751  00000-0  44186-3 0  9995,2 53178  53.2177  56.4892 0001325  88.3788 271.7356 15.08839543 72420,6917.882,95.438,540.663,538.83,0.0
53178.0,STARLINK-4280,PAYLOAD,2023-11-02 14:37:02,15.0884187,0.0001252,53.2175,56.1924,85.9629,274.1506,0.00041037,6.249e-05,0.0,0 STARLINK-4280,1 53178U 22083AY  23306.60905705  .00006249  00000-0  41037-3 0  9994,2 53178  53.2175  56.1924 0001252  85.9629 274.1506 15.08841870 71808,6917.875,95.437,540.606,538.874,0.0
53178.0,STARLINK-4280,PAYLOAD,2023-11-03 00:09:21,15.08837262,0.0001314,53.2175,54.4081,83.3166,276.7976,0.0003799,5.763e-05,0.0,0 STARLINK-4280,1 53178U 22083AY  23307.00649961  .00005763  00000-0  37990-3 0  9991,2 53178  53.2175  54.4081 0001314  83.3166 276.7976 15.08837262 72495,6917.889,95.438,540.663,538.845,0.0
53178.0,STARLINK-4280,PAYLOAD,2023-11-03 14:27:49,15.08845146,0.0001452,53.2179,51.7343,94.0221,266.0937,0.00027904,4.156e-05,0.0,0 STARLINK-4280,1 53178U 22083AY  23307.60265937  .00004156  00000-0  27904-3 0  9993,2 53178  53.2179  51.7343 0001452  94.0221 266.0937 15.08845146 71953,6917.865,95.437,540.734,538.725,0.0
53178.0,STARLINK-4280,PAYLOAD,2023-11-03 16:03:12,15.08852229,0.0001217,53.2177,51.4339,103.0388,257.074,0.00045647,6.987e-05,0.0,0 STARLINK-4280,1 53178U 22083AY  23307.66889425  .00006987  00000-0  45647-3 0  9991,2 53178  53.2177  51.4339 0001217 103.0388 257.0740 15.08852229 71960,6917.843,95.437,540.55,538.866,0.0
53178.0,STARLINK-4280,PAYLOAD,2023-11-04 00:00:08,15.08838468,0.000124,53.2183,49.9494,96.0986,264.0147,0.00010137,1.326e-05,0.0,0 STARLINK-4280,1 53178U 22083AY  23308.00009928  .00001326  00000-0  10137-3 0  9990,2 53178  53.2183  49.9494 0001240  96.0986 264.0147 15.08838468 72646,6917.885,95.438,540.608,538.892,0.0
53178.0,STARLINK-4280,PAYLOAD,2023-11-04 14:18:37,15.08840163,0.0001559,53.2164,47.2739,85.4013,274.7157,0.00014631,2.041e-05,0.0,0 STARLINK-4280,1 53178U 22083AY  23308.59626304  .00002041  00000-0  14631-3 0  9995,2 53178  53.2164  47.2739 0001559  85.4013 274.7157 15.08840163 72109,6917.88,95.438,540.823,538.666,0.0
53178.0,STARLINK-4280,PAYLOAD,2023-11-05 12:34:00,15.08851467,0.0001353,53.218,43.1113,79.6009,280.5136,0.0003797,5.762e-05,0.0,0 STARLINK-4280,1 53178U 22083AY  23309.52361914  .00005762  00000-0  37970-3 0  9996,2 53178  53.2180  43.1113 0001353  79.6009 280.5136 15.08851467 72875,6917.845,95.437,540.646,538.774,0.0
53178.0,STARLINK-4280,PAYLOAD,2023-11-05 14:09:23,15.08868534,0.0001507,53.2183,42.8116,88.4564,271.6601,0.00075471,0.00011753,0.0,0 STARLINK-4280,1 53178U 22083AY  23309.58985228  .00011753  00000-0  75471-3 0  9997,2 53178  53.2183  42.8116 0001507  88.4564 271.6601 15.08868534 72255,6917.793,95.436,540.701,538.616,0.0
53178.0,STARLINK-4280,PAYLOAD,2023-11-05 23:41:42,15.08866579,0.0001829,53.2188,41.0311,82.7408,277.3792,0.00064145,9.943e-05,0.0,0 STARLINK-4280,1 53178U 22083AY  23309.98729169  .00009943  00000-0  64145-3 0  9995,2 53178  53.2188  41.0311 0001829  82.7408 277.3792 15.08866579 72946,6917.799,95.436,540.929,538.399,0.0
53178.0,STARLINK-4280,PAYLOAD,2023-11-06 10:49:23,15.08862961,0.0001227,53.2179,38.9477,93.8828,266.2305,0.00033719,5.086e-05,0.0,0 STARLINK-4280,1 53178U 22083AY  23310.45096435  .00005086  00000-0  33719-3 0  9999,2 53178  53.2179  38.9477 0001227  93.8828 266.2305 15.08862961 73012,6917.81,95.436,540.524,538.826,0.0
53178.0,STARLINK-4280,PAYLOAD,2023-11-06 12:24:46,15.08855346,0.0001358,53.2181,38.6491,122.9497,237.1626,8.1814e-05,1.015e-05,0.0,0 STARLINK-4280,1 53178U 22083AY  23310.51720497  .00001015  00000-0  81814-4 0  9996,2 53178  53.2181  38.6491 0001358 122.9497 237.1626 15.08855346 72391,6917.833,95.437,540.638,538.759,0.0
53178.0,STARLINK-4280,PAYLOAD,2023-11-06 23:32:31,15.08794773,0.0001244,53.2187,36.569,88.2615,271.8519,-0.00097549,-0.0001576,0.0,0 STARLINK-4280,1 53178U 22083AY  23310.98091474 -.00015760  00000-0 -97549-3 0  9998,2 53178  53.2187  36.5690 0001244  88.2615 271.8519 15.08794773 73095,6918.019,95.44,540.744,539.023,0.0
53178.0,STARLINK-4280,PAYLOAD,2023-11-07 12:15:37,15.08802654,0.0001286,53.2193,34.1888,97.2349,262.8789,-3.5466e-05,-8.52e-06,0.0,0 STARLINK-4280,1 53178U 22083AY  23311.51084604 -.00000852  00000-0 -35466-4 0  9992,2 53178  53.2193  34.1888 0001286  97.2349 262.8789 15.08802654 73171,6917.995,95.44,540.749,538.97,0.0
53178.0,STARLINK-4280,PAYLOAD,2023-11-08 10:31:01,15.08854575,0.0001128,53.2181,30.0264,78.3071,281.8047,0.0014287,0.00022532,0.0,0 STARLINK-4280,1 53178U 22083AY  23312.43820982  .00022532  00000-0  14287-2 0  9994,2 53178  53.2181  30.0264 0001128  78.3071 281.8047 15.08854575 73311,6917.836,95.437,540.481,538.921,0.0
53178.0,STARLINK-4280,PAYLOAD,2023-11-09 11:57:09,15.08879051,0.0001121,53.2183,25.2673,83.431,276.6809,0.00053211,8.2e-05,0.0,0 STARLINK-4280,1 53178U 22083AY  23313.49802754  .00008200  00000-0  53211-3 0  9995,2 53178  53.2183  25.2673 0001121  83.4310 276.6809 15.08879051 73470,6917.761,95.435,540.402,538.851,0.0
53178.0,STARLINK-4280,PAYLOAD,2023-11-09 21:29:27,15.08873142,0.0001261,53.2189,23.4857,86.9663,273.1474,0.00012204,1.657e-05,0.0,0 STARLINK-4280,1 53178U 22083AY  23313.89546096  .00001657  00000-0  12204-3 0  9999,2 53178  53.2189  23.4857 0001261  86.9663 273.1474 15.08873142 72906,6917.779,95.435,540.516,538.772,0.0
53178.0,STARLINK-4280,PAYLOAD,2023-11-10 11:47:56,15.08844969,0.0001539,53.2189,20.8107,82.9977,277.119,-0.00028155,-4.767e-05,0.0,0 STARLINK-4280,1 53178U 22083AY  23314.49162673 -.00004767  00000-0 -28155-3 0  9990,2 53178  53.2189  20.8107 0001539  82.9977 277.1190 15.08844969 73621,6917.865,95.437,540.795,538.666,0.0
